P/2011 Q3 (McNaught),e,6.0575,32.0278,310.9935,4.970921,0.0889301,0.53281588,332.9286,10/19.0/2021,2000,g 13.5,4.0
# From MPC 98558
P/2011 S1 (Gibbs),e,2.6854,218.8636,192.4214,8.583846,0.0391905,0.20085090,102.8923,10/19.0/2021,2000,g  8.0,4.0
# From MPC 79022
P/2011 UA134 (Spacewatch-PANSTARRS),e,10.4408,40.4040,32.4132,5.607576,0.0742235,0.62943171,269.6224,10/19.0/2021,2000,g 17.5,4.0
# From MPC 77406
P/2011 V1 (Boattini),e,7.3753,46.8153,269.3189,3.855961,0.1301683,0.55051876,144.8317,10/19.0/2021,2000,g 15.5,4.0
# From MPC 82718
P/2011 W1 (PANSTARRS),e,3.7185,161.7872,282.7433,4.662269,0.0979057,0.28746453,349.0654,10/19.0/2021,2000,g 11.5,4.0
# From MPC 79342
P/2011 Y2 (Boattini),e,6.3725,309.3604,131.9117,6.239519,0.0632379,0.70963487,222.3432,10/19.0/2021,2000,g 15.0,4.0
# From MPC 94669
P/2012 B1 (PANSTARRS),e,7.6116,36.2138,162.5139,6.530317,0.0590613,0.40912020,178.1826,10/19.0/2021,2000,g  9.0,4.0
# From MPC 78590
P/2012 C3 (PANSTARRS),e,9.0920,135.3677,344.9542,9.748681,0.0323806,0.63011148,359.9758,10/06.0/2011,2000,g 13.0,4.0
# From MPC 84931
P/2012 F2 (PANSTARRS),e,14.7120,227.0225,33.3097,6.331644,0.0618628,0.54200946,192.5072,10/19.0/2021,2000,g 12.0,4.0
# From MPC 79344
P/2012 G1 (PANSTARRS),e,11.6925,282.5440,286.1149,4.172871,0.1156250,0.38072240,359.9500,06/01.0/2012,2000,g 15.0,4.0
# From MPC 80898
P/2012 K3 (Gibbs),e,13.1942,125.8105,172.2104,3.626454,0.1427187,0.42321330,113.2485,10/19.0/2021,2000,g 15.0,4.0
# From MPC 88326
P/2012 NJ (La Sagra),e,84.6575,315.5481,338.3603,8.462791,0.0400344,0.84707866,136.6745,10/19.0/2021,2000,g 14.5,4.0
# From MPC 81470
P/2012 O1 (McNaught),e,7.4303,91.9684,238.2601,3.540932,0.1479203,0.59458250,142.1964,10/19.0/2021,2000,g 17.5,4.0
# From MPC 80899
P/2012 O2 (McNaught),e,24.4835,120.6816,183.4493,3.624596,0.1428284,0.53259288,128.0962,10/19.0/2021,2000,g 17.0,4.0
# From MPC 82720
P/2012 O3 (McNaught),e,16.6160,336.4147,344.7481,4.572304,0.1008095,0.64699632,337.5428,10/19.0/2021,2000,g 16.5,4.0
# From MPC 82320
P/2012 T2 (PANSTARRS),e,12.5607,73.7190,310.4998,5.733478,0.0717921,0.16160484,222.6215,10/19.0/2021,2000,g 10.0,4.0
# From MPC 80900
P/2012 T3 (PANSTARRS),e,9.5658,114.3996,195.4918,6.151233,0.0646042,0.61721314,223.1851,10/19.0/2021,2000,g 15.0,4.0
# From MPEC 2021-U31
P/2012 TK8 (Tenagra),e,6.3400,288.9653,128.0298,4.127074,0.1175549,0.27419720,359.2125,10/19.0/2021,2000,g 13.0,4.0
# From MPC 82720
P/2012 U2 (PANSTARRS),e,10.7564,185.3068,228.2507,7.137476,0.0516877,0.49881527,168.7461,10/19.0/2021,2000,g 12.5,4.0
# From MPC 84024
P/2012 US27 (Siding Spring),e,39.3515,49.1859,0.8024,5.166364,0.0839318,0.64781745,267.7883,10/19.0/2021,2000,g 13.5,4.0
# From MPC 82721
P/2012 WA34 (Lemmon-PANSTARRS),e,6.0807,93.8823,355.3616,4.716079,0.0962349,0.34615770,300.0097,10/19.0/2021,2000,g 13.5,4.0
# From MPC 82721
P/2013 AL76 (Catalina),e,144.8486,145.9873,27.0748,6.496950,0.0595168,0.68633919,192.7444,10/19.0/2021,2000,g 16.0,4.0
# From MPC 91612
P/2013 G1 (Kowalski),e,5.4628,221.3646,51.4796,6.891757,0.0544765,0.51243691,156.2011,10/19.0/2021,2000,g 11.0,4.0
# From MPC 84025
P/2013 G4 (PANSTARRS),e,5.9165,339.6380,214.6678,4.440144,0.1053437,0.40945413,334.3552,10/19.0/2021,2000,g 15.0,4.0
# From MPC 91613
P/2013 J2 (McNaught),e,15.5273,289.4052,37.7804,6.222713,0.0634943,0.65768010,188.7314,10/19.0/2021,2000,g 13.0,4.0
# From MPC 86229
P/2013 N3 (PANSTARRS),e,2.1740,17.4652,323.9164,7.391885,0.0490423,0.59333726,137.3704,10/19.0/2021,2000,g 13.0,4.0
# From MPC 85834
P/2013 N5 (PANSTARRS),e,23.4475,187.1575,176.9059,6.797882,0.0556088,0.73231238,168.4143,10/19.0/2021,2000,g 17.0,4.0
# From MPC 85834
P/2013 P1 (PANSTARRS),e,18.7251,160.5907,138.1903,8.574308,0.0392559,0.60566779,123.7707,10/19.0/2021,2000,g 12.0,4.0
# From MPC 94671
P/2013 R3 (Catalina-PANSTARRS),e,0.8652,341.9991,11.1918,3.033323,0.1865633,0.27538114,195.2637,10/19.0/2021,2000,g 14.0,4.0
# From unp
P/2013 R3-A (Catalina-PANSTARRS),e,0.8646,341.9660,11.2308,3.033181,0.1865764,0.27535070,195.3002,10/19.0/2021,2000,g  9.0,4.0
# From MPEC 2015-M77
P/2013 R3-B (Catalina-PANSTARRS),e,0.8658,342.0218,11.1657,3.033400,0.1865562,0.27539612,195.2441,10/19.0/2021,2000,g  9.0,4.0
# From MPC 85835
P/2013 T1 (PANSTARRS),e,24.2943,10.0812,346.1150,5.859317,0.0694918,0.62409570,208.3356,10/19.0/2021,2000,g 16.5,4.0
# From MPC 86643
P/2013 T2 (Schwartz),e,9.4572,0.8027,345.5311,3.490628,0.1511293,0.50125949,104.0159,10/19.0/2021,2000,g 16.0,4.0
# From MPC 91613
P/2013 W1 (PANSTARRS),e,4.6955,117.8468,1.2676,3.489262,0.1512181,0.59272395,61.0530,10/19.0/2021,2000,g 17.5,4.0
# From MPC101095
P/2013 YG46 (Spacewatch),e,7.8563,48.8431,242.5581,3.275469,0.1662623,0.45485654,286.1491,10/19.0/2021,2000,g 10.0,4.0
# From MPC 89728
P/2014 A2 (Hill),e,24.5355,106.6297,356.1822,5.927346,0.0682989,0.64528762,200.0585,10/19.0/2021,2000,g 15.0,4.0
# From MPC 92981
P/2014 A3 (PANSTARRS),e,13.6989,230.0186,213.6510,4.618705,0.0992942,0.24742980,305.6073,10/19.0/2021,2000,g 12.0,4.0
# From MPEC 2021-R75
C/2014 B1 (Schwartz),e,28.4114,161.4223,345.6994,4774,0.0000030,0.99799985,0.0000,09/07.3230/2017,2000,g  4.0,4.0
# From MPC102095
P/2014 C1 (TOTAS),e,2.6901,167.7744,23.9286,3.037170,0.1862089,0.44886759,171.1556,10/19.0/2021,2000,g 15.5,4.0
# From MPC 94280
C/2014 F3 (Sheppard-Trujillo),e,6.5918,326.7296,3.7827,15.18022,0.0166643,0.62513827,2.5090,10/19.0/2021,2000,g  6.0,4.0
# From MPC 98560
P/2014 L2 (NEOWISE),e,5.1998,149.3472,182.6758,6.303851,0.0622723,0.64827287,164.8612,10/19.0/2021,2000,g 12.0,4.0
# From MPC 90769
P/2014 L3 (Hill),e,6.2756,115.4758,178.6750,8.172261,0.0421882,0.77355334,112.4857,10/19.0/2021,2000,g 16.0,4.0
# From MPC 91614
P/2014 M4 (PANSTARRS),e,3.3379,263.2367,147.9666,5.872016,0.0692665,0.59467136,172.4004,10/19.0/2021,2000,g 15.0,4.0
# From MPC103844
P/2014 MG4 (Spacewatch-PANSTARRS),e,9.3707,311.7346,299.1005,5.012243,0.0878326,0.25936135,267.3914,10/19.0/2021,2000,g  9.5,4.0
# From MPC 98560
P/2014 O3 (PANSTARRS),e,7.8032,87.6447,204.6886,7.568696,0.0473339,0.38567241,129.6087,10/19.0/2021,2000,g 10.5,4.0
# From MPEC 2021-P47
C/2014 OE4 (PANSTARRS),h,12/13.0280/2016,81.2832,240.4298,65.8970,1.003216,6.250322,2000,11.0,2.0
# From MPEC 2021-S45
C/2014 OG392 (PANSTARRS),e,9.0327,145.7928,254.0596,12.23471,0.0230310,0.18514765,359.0676,10/19.0/2021,2000,g  6.0,4.0
# From MPC 91615
P/2014 R5 (Lemmon-PANSTARRS),e,1.0883,126.5612,213.7428,4.056428,0.1206392,0.41379214,323.3264,10/19.0/2021,2000,g 15.0,4.0
# From MPC 91616
P/2014 U4 (PANSTARRS),e,6.4291,11.8884,347.7590,3.506540,0.1501018,0.46491848,37.1438,10/19.0/2021,2000,g 18.0,4.0
# From MPEC 2021-TD0
C/2014 UN271 (Bernardinelli-Bernstein),e,95.4393,189.9168,326.3590,9846,0.0000010,0.99888941,0.0000,01/26.3206/2031,2000,g  2.5,3.2
# From MPC 95211
P/2014 V1 (PANSTARRS),e,22.5261,166.2001,177.6009,5.480301,0.0768241,0.53447609,188.9052,10/19.0/2021,2000,g 14.0,4.0
# From MPC 93586
P/2014 W1 (PANSTARRS),e,8.8377,246.2445,152.1918,4.463155,0.1045300,0.38890006,277.2406,10/19.0/2021,2000,g 15.5,4.0
# From MPC105542
P/2014 W4 (PANSTARRS),e,15.2779,33.3689,67.7260,6.594762,0.0581976,0.35236296,123.4085,10/19.0/2021,2000,g 11.0,4.0
# From MPC 94281
P/2014 X1 (Elenin),e,26.0201,61.5249,33.9256,6.207891,0.0637218,0.70879842,158.2702,10/19.0/2021,2000,g 15.0,4.0
# From MPC 92275
P/2015 A3 (PANSTARRS),e,172.5332,277.2186,249.3129,7.810410,0.0451537,0.85088043,109.9872,10/19.0/2021,2000,g 20.0,4.0
# From MPC 99270
P/2015 B1 (PANSTARRS),e,18.0384,352.9756,188.8953,9.496875,0.0336770,0.36743991,75.0237,10/19.0/2021,2000,g  8.5,4.0
# From MPC109141
P/2015 B4 (Lemmon-PANSTARRS),e,1.7606,266.0304,227.4008,8.526258,0.0395883,0.56007540,96.9974,10/19.0/2021,2000,g 11.0,4.0
# From MPC101096
P/2015 C1 (TOTAS-Gibbs),e,13.9000,348.8079,178.2394,6.580858,0.0583822,0.56031080,138.2859,10/19.0/2021,2000,g 12.5,4.0
# From MPC109141
P/2015 D5 (Kowalski),e,20.5115,74.0616,39.7943,8.963863,0.0367250,0.48902491,101.3287,10/19.0/2021,2000,g  9.0,4.0
# From MPC 96866
P/2015 D6 (Lemmon-PANSTARRS),e,20.2012,45.9524,125.1251,7.141565,0.0516433,0.36144357,118.9183,10/19.0/2021,2000,g 10.5,4.0
# From MPEC 2021-P47
C/2015 ER61 (PANSTARRS),e,6.3282,235.0900,68.4278,523.7068,0.0000822,0.99800332,0.0000,05/10.5026/2017,2000,g 11.0,2.0
# From MPEC 2018-BF5
C/2015 E61-B (PANSTARRS),e,6.3297,235.1251,68.5172,1660,0.0000146,0.99936896,0.0000,05/10.4804/2017,2000,g 13.5,2.0
# From MPEC 2021-P47
P/2015 HG16 (PANSTARRS),e,18.7749,58.3289,47.6442,4.752023,0.0951451,0.35227515,255.2677,10/19.0/2021,2000,g 12.5,4.0
# From MPC 95213
P/2015 K5 (PANSTARRS),e,39.9449,134.1775,106.3604,6.723436,0.0565350,0.55282596,131.6672,10/19.0/2021,2000,g 13.5,4.0
# From MPC107684
P/2015 M2 (PANSTARRS),e,3.9716,86.5859,225.6875,7.234470,0.0506517,0.18077573,112.8981,10/19.0/2021,2000,g  8.5,4.0
# From MPEC 2021-P47
C/2015 O1 (PANSTARRS),h,02/19.9433/2018,127.2164,299.8486,89.6155,1.001529,3.726989,2000,6.5,4.0
# From MPC 99819
P/2015 P4 (PANSTARRS),e,8.7174,104.7394,280.5817,6.047923,0.0662666,0.58518511,139.0179,10/19.0/2021,2000,g 14.0,4.0
# From MPC102952
P/2015 PD229 (Cameron-ISON),e,2.0263,342.6330,352.5407,7.185791,0.0511673,0.32815881,115.3806,10/19.0/2021,2000,g 11.5,2.0
# From MPC 96867
P/2015 Q2 (Pimentel),e,146.5182,228.4635,244.5547,7.350812,0.0494540,0.75058104,110.5375,10/19.0/2021,2000,g 15.5,4.0
# From MPC 98562
P/2015 R1 (PANSTARRS),e,22.6860,48.3848,300.4864,5.880038,0.0691248,0.63436640,159.2401,10/19.0/2021,2000,g 14.0,4.0
# From MPC 95734
P/2015 R2 (PANSTARRS),e,15.4844,168.5969,149.8016,4.487232,0.1036899,0.45295355,240.4542,10/19.0/2021,2000,g 14.5,4.0
# From MPC117068
C/2015 T2 (PANSTARRS),e,124.5587,51.0010,30.6565,1749,0.0000135,0.99603265,0.0000,05/18.1519/2017,2000,g  8.0,4.0
# From MPC 96280
P/2015 T3 (PANSTARRS),e,13.0937,120.5019,178.6330,4.326181,0.1095335,0.50818108,359.9227,12/21.0/2014,2000,g 14.0,4.0
# From MPC102953
P/2015 TO19 (Lemmon-PANSTARRS),e,6.4996,321.6499,89.1137,4.554573,0.1013987,0.35860736,208.2020,10/19.0/2021,2000,g 14.0,4.0
# From MPC110080
